[Satellite]
VERSION=1.1
NAME=BREEZE-M R/B
NICKNAME=BREEZE-M R/B
TLE1=1 40385U 15005B   15033.64806413 -.00000488  00000-0  00000+0 0  9995
TLE2=2 40385  28.0672 328.3474 7666547 182.3387   6.9538  1.10998905    15
